{
    "links": {
        "self": "http://www.neowsapp.com/rest/v1/neo/3787094?api_key=iIulBulltgU6a56xZRHN4H3l9WmuAYTsLGpBGhQ2"
    },
    "id": "3787094",
    "neo_reference_id": "3787094",
    "name": "(2017 UQ1)",
    "designation": "2017 UQ1",
    "nasa_jpl_url": "http://ssd.jpl.nasa.gov/sbdb.cgi?sstr=3787094",
    "absolute_magnitude_h": 25.9,
    "estimated_diameter": {
        "kilometers": {
            "estimated_diameter_min": 0.0175612318,
            "estimated_diameter_max": 0.0392681082
        },
        "meters": {
            "estimated_diameter_min": 17.561231848,
            "estimated_diameter_max": 39.2681081809
        },
        "miles": {
            "estimated_diameter_min": 0.0109120402,
            "estimated_diameter_max": 0.0244000636
        },
        "feet": {
            "estimated_diameter_min": 57.6155918963,
            "estimated_diameter_max": 128.8323800441
        }
    },
    "is_potentially_hazardous_asteroid": false,
    "close_approach_data": [
        {
            "close_approach_date": "1940-10-19",
            "close_approach_date_full": "1940-Oct-19 19:57",
            "epoch_date_close_approach": -921470580000,
            "relative_velocity": {
                "kilometers_per_second": "27.3148220497",
                "kilometers_per_hour": "98333.359378754",
                "miles_per_hour": "61100.5254428708"
            },
            "miss_distance": {
                "astronomical": "0.1401308133",
                "lunar": "54.5108863737",
                "kilometers": "20963271.191047671",
                "miles": "13025972.6957370198"
            },
            "orbiting_body": "Earth"
        },
        {
            "close_approach_date": "2017-10-13",
            "close_approach_date_full": "2017-Oct-13 18:14",
            "epoch_date_close_approach": 1507918440000,
            "relative_velocity": {
                "kilometers_per_second": "22.9372699153",
                "kilometers_per_hour": "82574.1716949986",
                "miles_per_hour": "51308.379073484"
            },
            "miss_distance": {
                "astronomical": "0.0149299884",
                "lunar": "5.8077654876",
                "kilometers": "2233494.463764708",
                "miles": "1387829.1052926504"
            },
            "orbiting_body": "Earth"
        }
    ],
    "orbital_data": {
        "orbit_id": "2",
        "orbit_determination_date": "2017-10-24 06:21:49",
        "first_observation_date": "2017-10-17",
        "last_observation_date": "2017-10-21",
        "data_arc_in_days": 4,
        "observations_used": 21,
        "orbit_uncertainty": "8",
        "minimum_orbit_intersection": ".00496303",
        "jupiter_tisserand_invariant": "3.716",
        "epoch_osculation": "2458044.5",
        "eccentricity": ".7115580975213195",
        "semi_major_axis": "1.792187324621613",
        "inclination": "9.933982338788836",
        "ascending_node_longitude": "199.463272930667",
        "orbital_period": "876.3418034484174",
        "perihelion_distance": ".5169419215120347",
        "perihelion_argument": "82.5697468451274",
        "aphelion_distance": "3.067432727731192",
        "perihelion_time": "2457992.610834735932",
        "mean_anomaly": "21.31599727590082",
        "mean_motion": ".4107986160005091",
        "equinox": "J2000",
        "orbit_class": {
            "orbit_class_type": "APO",
            "orbit_class_description": "Near-Earth asteroid orbits which cross the Earth’s orbit similar to that of 1862 Apollo",
            "orbit_class_range": "a (semi-major axis) > 1.0 AU; q (perihelion) < 1.017 AU"
        }
    },
    "is_sentry_object": false
}